0 COSMOS 2403 (GLONASS)
1 28114U 03056C   13279.92716233  .00000025  00000-0  00000+0 0  1319
2 28114 063.3264 226.6400 0036664 067.6062 100.3363 02.13104954 76462
0 COSMOS 2403 (GLONASS)
1 28114U 03056C   13282.38945434  .00000028  00000-0  00000+0 0  1324
2 28114 063.3258 226.5522 0036732 067.6259 189.3367 02.13105014 76518
0 COSMOS 2403 (GLONASS)
1 28114U 03056C   13288.37931527 -.00000039  00000-0  00000+0 0  1342
2 28114 063.3244 226.3389 0036864 067.5951 104.6684 02.13105190 76647
0 COSMOS 2403 (GLONASS)
1 28114U 03056C   13290.83654198 -.00000034  00000-0  00000+0 0  1358
2 28114 063.3239 226.2515 0036955 067.5514 189.8492 02.13105191 76695
0 COSMOS 2403 (GLONASS)
1 28114U 03056C   13293.20445927 -.00000012  00000-0  00000+0 0  1367
2 28114 063.3234 226.1673 0037012 067.5011 206.5210 02.13105164 76742
